start=new Date('2022-09-30T00:00:00.000Z').valueOf();
sats=[{"TLE_LINE2":"2 52556  53.2186  16.8304 0001934  60.4670 299.6515 15.09031715 21611","GP_ID":"213838519","TLE_LINE1":"1 52556U 22051Z   22272.73177189  .00014298  00000-0  90983-3 0  9997","MEAN_ANOMALY":"299.6515","DECAY_DATE":null,"RCS_SIZE":"LARGE","ELEMENT_SET_NO":"999","OBJECT_NAME":"STARLINK-3763","MEAN_MOTION_DDOT":"0.0000000000000","PERIOD":"95.425","SITE":"AFWTR","MEAN_MOTION":"15.09031715","BSTAR":"0.00090983000000","OBJECT_ID":"2022-051Z","COUNTRY_CODE":"US","NORAD_CAT_ID":"52556","SEMIMAJOR_AXIS":"6917.294","INCLINATION":"53.2186","MEAN_ELEMENT_THEORY":"SGP4","ARG_OF_PERICENTER":"60.4670","ECCENTRICITY":"0.00019340","FILE":"3587117","RA_OF_ASC_NODE":"16.8304","EPOCH":"2022-09-29T17:33:45.091296","CLASSIFICATION_TYPE":"U","LAUNCH_DATE":"2022-05-13","OBJECT_TYPE":"PAYLOAD","TIME_SYSTEM":"UTC","MEAN_MOTION_DOT":"0.00014298","REV_AT_EPOCH":"2161","EPHEMERIS_TYPE":"0","APOAPSIS":"540.497","CENTER_NAME":"EARTH","REF_FRAME":"TEME","PERIAPSIS":"537.822"},{"TLE_LINE2":"2 52557  53.2212  12.6492 0001714  55.1130 305.0023 15.08843714 21662","GP_ID":"213808263","TLE_LINE1":"1 52557U 22051AA  22272.54711624  .00000348  00000-0  39973-4 0  9999","MEAN_ANOMALY":"305.0023","DECAY_DATE":null,"RCS_SIZE":"LARGE","ELEMENT_SET_NO":"999","OBJECT_NAME":"STARLINK-3943","MEAN_MOTION_DDOT":"0.0000000000000","SITE":"AFWTR","PERIOD":"95.437","MEAN_MOTION":"15.08843714","BSTAR":"0.00003997300000","OBJECT_ID":"2022-051AA","COUNTRY_CODE":"US","NORAD_CAT_ID":"52557","INCLINATION":"53.2212","SEMIMAJOR_AXIS":"6917.869","MEAN_ELEMENT_THEORY":"SGP4","ARG_OF_PERICENTER":"55.1130","ECCENTRICITY":"0.00017140","FILE":"3586894","RA_OF_ASC_NODE":"12.6492","EPOCH":"2022-09-29T13:07:50.843136","CLASSIFICATION_TYPE":"U","LAUNCH_DATE":"2022-05-13","OBJECT_TYPE":"PAYLOAD","TIME_SYSTEM":"UTC","MEAN_MOTION_DOT":"0.00000348","REV_AT_EPOCH":"2166","EPHEMERIS_TYPE":"0","APOAPSIS":"540.920","CENTER_NAME":"EARTH","REF_FRAME":"TEME","PERIAPSIS":"538.548"},{"RA_OF_ASC_NODE":"2.6582","EPOCH":"2022-09-29T13:09:12.034944","CLASSIFICATION_TYPE":"U","OBJECT_TYPE":"PAYLOAD","LAUNCH_DATE":"2022-05-13","EPHEMERIS_TYPE":"0","REV_AT_EPOCH":"2179","MEAN_MOTION_DOT":"-0.00002788","TIME_SYSTEM":"UTC","PERIAPSIS":"538.571","REF_FRAME":"TEME","CENTER_NAME":"EARTH","APOAPSIS":"541.014","NORAD_CAT_ID":"52558","COUNTRY_CODE":"US","MEAN_ELEMENT_THEORY":"SGP4","SEMIMAJOR_AXIS":"6917.927","INCLINATION":"53.2126","ECCENTRICITY":"0.00017660","ARG_OF_PERICENTER":"45.0607","FILE":"3586894","MEAN_MOTION":"15.08824593","SITE":"AFWTR","PERIOD":"95.439","OBJECT_NAME":"STARLINK-3954","MEAN_MOTION_DDOT":"0.0000000000000","ELEMENT_SET_NO":"999","BSTAR":"-0.00015720000000","OBJECT_ID":"2022-051AB","GP_ID":"213808425","TLE_LINE1":"1 52558U 22051AB  22272.54805596 -.00002788  00000-0 -15720-3 0  9997","TLE_LINE2":"2 52558  53.2126   2.6582 0001766  45.0607 315.0528 15.08824593 21799","MEAN_ANOMALY":"315.0528","DECAY_DATE":null,"RCS_SIZE":"LARGE"},{"OBJECT_ID":"2022-051AC","ELEMENT_SET_NO":"999","OBJECT_NAME":"STARLINK-3953","MEAN_MOTION_DDOT":"0.0000000000000","SITE":"AFWTR","PERIOD":"95.438","MEAN_MOTION":"15.08825468","BSTAR":"-0.00016517000000","DECAY_DATE":null,"RCS_SIZE":"MEDIUM","TLE_LINE2":"2 52559  53.2186   1.7828 0001609  54.2706 305.8436 15.08825468 21828","TLE_LINE1":"1 52559U 22051AC  22272.74036742 -.00002915  00000-0 -16517-3 0  9996","GP_ID":"213838681","MEAN_ANOMALY":"305.8436","TIME_SYSTEM":"UTC","REV_AT_EPOCH":"2182","MEAN_MOTION_DOT":"-0.00002915","EPHEMERIS_TYPE":"0","APOAPSIS":"540.903","CENTER_NAME":"EARTH","REF_FRAME":"TEME","PERIAPSIS":"538.677","RA_OF_ASC_NODE":"1.7828","EPOCH":"2022-09-29T17:46:07.745088","CLASSIFICATION_TYPE":"U","LAUNCH_DATE":"2022-05-13","OBJECT_TYPE":"PAYLOAD","ARG_OF_PERICENTER":"54.2706","ECCENTRICITY":"0.00016090","FILE":"3587117","COUNTRY_CODE":"US","NORAD_CAT_ID":"52559","INCLINATION":"53.2186","SEMIMAJOR_AXIS":"6917.925","MEAN_ELEMENT_THEORY":"SGP4"},{"BSTAR":"-0.00007769200000","ELEMENT_SET_NO":"999","OBJECT_NAME":"STARLINK-3956","MEAN_MOTION_DDOT":"0.0000000000000","SITE":"AFWTR","PERIOD":"95.438","MEAN_MOTION":"15.08828992","OBJECT_ID":"2022-051AD","MEAN_ANOMALY":"303.7043","TLE_LINE2":"2 52560  53.2190   2.6642 0001650  56.4107 303.7043 15.08828992 21796","GP_ID":"213808817","TLE_LINE1":"1 52560U 22051AD  22272.54436574 -.00001524  00000-0 -77692-4 0  9990","RCS_SIZE":"LARGE","DECAY_DATE":null,"LAUNCH_DATE":"2022-05-13","OBJECT_TYPE":"PAYLOAD","EPOCH":"2022-09-29T13:03:53.199936","CLASSIFICATION_TYPE":"U","RA_OF_ASC_NODE":"2.6642","APOAPSIS":"540.920","CENTER_NAME":"EARTH","REF_FRAME":"TEME","PERIAPSIS":"538.638","TIME_SYSTEM":"UTC","REV_AT_EPOCH":"2179","MEAN_MOTION_DOT":"-0.00001524","EPHEMERIS_TYPE":"0","INCLINATION":"53.2190","SEMIMAJOR_AXIS":"6917.914","MEAN_ELEMENT_THEORY":"SGP4","COUNTRY_CODE":"US","NORAD_CAT_ID":"52560","FILE":"3586894","ARG_OF_PERICENTER":"56.4107","ECCENTRICITY":"0.00016500"},{"OBJECT_ID":"2022-051AE","BSTAR":"-0.00014703000000","ELEMENT_SET_NO":"999","OBJECT_NAME":"STARLINK-3955","MEAN_MOTION_DDOT":"0.0000000000000","SITE":"AFWTR","PERIOD":"95.438","MEAN_MOTION":"15.08829137","RCS_SIZE":"LARGE","DECAY_DATE":null,"MEAN_ANOMALY":"312.3348","TLE_LINE2":"2 52561  53.2169  18.0589 0001799  47.7797 312.3348 15.08829137 21578","TLE_LINE1":"1 52561U 22051AE  22272.46018443 -.00002627  00000-0 -14703-3 0  9991","GP_ID":"213807849","APOAPSIS":"541.023","CENTER_NAME":"EARTH","REF_FRAME":"TEME","PERIAPSIS":"538.534","TIME_SYSTEM":"UTC","MEAN_MOTION_DOT":"-0.00002627","REV_AT_EPOCH":"2157","EPHEMERIS_TYPE":"0","LAUNCH_DATE":"2022-05-13","OBJECT_TYPE":"PAYLOAD","EPOCH":"2022-09-29T11:02:39.934752","RA_OF_ASC_NODE":"18.0589","CLASSIFICATION_TYPE":"U","FILE":"3586894","ARG_OF_PERICENTER":"47.7797","ECCENTRICITY":"0.00017990","INCLINATION":"53.2169","SEMIMAJOR_AXIS":"6917.914","MEAN_ELEMENT_THEORY":"SGP4","COUNTRY_CODE":"US","NORAD_CAT_ID":"52561"},{"TIME_SYSTEM":"UTC","MEAN_MOTION_DOT":"-0.00003624","REV_AT_EPOCH":"2181","EPHEMERIS_TYPE":"0","APOAPSIS":"541.117","CENTER_NAME":"EARTH","REF_FRAME":"TEME","PERIAPSIS":"538.561","RA_OF_ASC_NODE":"2.0952","EPOCH":"2022-09-29T16:04:04.551168","CLASSIFICATION_TYPE":"U","LAUNCH_DATE":"2022-05-13","OBJECT_TYPE":"PAYLOAD","ARG_OF_PERICENTER":"50.9821","ECCENTRICITY":"0.00018480","FILE":"3587117","COUNTRY_CODE":"US","NORAD_CAT_ID":"52562","SEMIMAJOR_AXIS":"6917.974","INCLINATION":"53.2183","MEAN_ELEMENT_THEORY":"SGP4","OBJECT_ID":"2022-051AF","ELEMENT_SET_NO":"999","MEAN_MOTION_DDOT":"0.0000000000000","OBJECT_NAME":"STARLINK-3957","PERIOD":"95.439","SITE":"AFWTR","MEAN_MOTION":"15.08809373","BSTAR":"-0.00020989000000","DECAY_DATE":null,"RCS_SIZE":"LARGE","TLE_LINE2":"2 52562  53.2183   2.0952 0001848  50.9821 309.1336 15.08809373 21819","GP_ID":"213838359","TLE_LINE1":"1 52562U 22051AF  22272.66949712 -.00003624  00000-0 -20989-3 0  9997","MEAN_ANOMALY":"309.1336"},{"OBJECT_ID":"2022-051AG","MEAN_MOTION":"15.08840414","SITE":"AFWTR","PERIOD":"95.438","OBJECT_NAME":"STARLINK-3942","MEAN_MOTION_DDOT":"0.0000000000000","ELEMENT_SET_NO":"999","BSTAR":"0.00002345700000","DECAY_DATE":null,"RCS_SIZE":"LARGE","GP_ID":"213808103","TLE_LINE1":"1 52563U 22051AG  22272.46385058  .00000085  00000-0  23457-4 0  9993","TLE_LINE2":"2 52563  53.2176  18.0370 0001623  53.6804 306.4338 15.08840414 21571","MEAN_ANOMALY":"306.4338","EPHEMERIS_TYPE":"0","MEAN_MOTION_DOT":"0.00000085","REV_AT_EPOCH":"2157","TIME_SYSTEM":"UTC","PERIAPSIS":"538.621","REF_FRAME":"TEME","CENTER_NAME":"EARTH","APOAPSIS":"540.867","CLASSIFICATION_TYPE":"U","RA_OF_ASC_NODE":"18.0370","EPOCH":"2022-09-29T11:07:56.690112","OBJECT_TYPE":"PAYLOAD","LAUNCH_DATE":"2022-05-13","ECCENTRICITY":"0.00016230","ARG_OF_PERICENTER":"53.6804","FILE":"3586894","NORAD_CAT_ID":"52563","COUNTRY_CODE":"US","MEAN_ELEMENT_THEORY":"SGP4","INCLINATION":"53.2176","SEMIMAJOR_AXIS":"6917.879"},{"MEAN_ELEMENT_THEORY":"SGP4","SEMIMAJOR_AXIS":"6917.895","INCLINATION":"53.2182","NORAD_CAT_ID":"52564","COUNTRY_CODE":"US","FILE":"3587117","ECCENTRICITY":"0.00015980","ARG_OF_PERICENTER":"79.4500","OBJECT_TYPE":"PAYLOAD","LAUNCH_DATE":"2022-05-13","EPOCH":"2022-09-29T18:54:17.618688","CLASSIFICATION_TYPE":"U","RA_OF_ASC_NODE":"16.5803","PERIAPSIS":"538.654","REF_FRAME":"TEME","CENTER_NAME":"EARTH","APOAPSIS":"540.865","EPHEMERIS_TYPE":"0","REV_AT_EPOCH":"2162","MEAN_MOTION_DOT":"0.00000478","TIME_SYSTEM":"UTC","MEAN_ANOMALY":"280.6672","GP_ID":"213838520","TLE_LINE1":"1 52564U 22051AH  22272.78770392  .00000478  00000-0  48101-4 0  9997","TLE_LINE2":"2 52564  53.2182  16.5803 0001598  79.4500 280.6672 15.08835313 21625","RCS_SIZE":"LARGE","DECAY_DATE":null,"BSTAR":"0.00004810100000","MEAN_MOTION":"15.08835313","SITE":"AFWTR","PERIOD":"95.438","MEAN_MOTION_DDOT":"0.0000000000000","OBJECT_NAME":"STARLINK-3959","ELEMENT_SET_NO":"999","OBJECT_ID":"2022-051AH"},{"DECAY_DATE":null,"RCS_SIZE":"LARGE","TLE_LINE2":"2 52565  53.2188   1.7872 0001742  51.7295 308.3854 15.08833965 21822","TLE_LINE1":"1 52565U 22051AJ  22272.73940700 -.00000882  00000-0 -37313-4 0  9999","GP_ID":"213839483","MEAN_ANOMALY":"308.3854","OBJECT_ID":"2022-051AJ","ELEMENT_SET_NO":"999","OBJECT_NAME":"STARLINK-3911","MEAN_MOTION_DDOT":"0.0000000000000","PERIOD":"95.438","SITE":"AFWTR","MEAN_MOTION":"15.08833965","BSTAR":"-0.00003731300000","ARG_OF_PERICENTER":"51.7295","ECCENTRICITY":"0.00017420","FILE":"3587117","COUNTRY_CODE":"US","NORAD_CAT_ID":"52565","INCLINATION":"53.2188","SEMIMAJOR_AXIS":"6917.899","MEAN_ELEMENT_THEORY":"SGP4","TIME_SYSTEM":"UTC","MEAN_MOTION_DOT":"-0.00000882","REV_AT_EPOCH":"2182","EPHEMERIS_TYPE":"0","APOAPSIS":"540.969","CENTER_NAME":"EARTH","REF_FRAME":"TEME","PERIAPSIS":"538.559","RA_OF_ASC_NODE":"1.7872","EPOCH":"2022-09-29T17:44:44.764800","CLASSIFICATION_TYPE":"U","LAUNCH_DATE":"2022-05-13","OBJECT_TYPE":"PAYLOAD"}];
